{"type": "FeatureCollection", "features": [ {"type": "Feature", "properties": {"norad_id": 35885, "name": "COSMOS 2251 DEB", "group": "cosmos-2251-debris", "lat": 64.65992150356406, "lon": 98.8918092623182, "alt_km": 754.6001730897488, "timestamp": "2025-12-01T03:58:49.148150+00:00", "meta": {"OBJECT_NAME": "COSMOS 2251 DEB", "OBJECT_ID": "1993-036ATY", "EPOCH": "2025-11-29T06:22:33.246912", "MEAN_MOTION": 14.37477646, "ECCENTRICITY": 0.00226571, "INCLINATION": 74.0276, "RA_OF_ASC_NODE": 319.604, "ARG_OF_PERICENTER": 43.8514, "MEAN_ANOMALY": 316.4433, "EPHEMERIS_TYPE": 0, "CLASSIFICATION_TYPE": "U", "NORAD_CAT_ID": 35885, "ELEMENT_SET_NO": 999, "REV_AT_EPOCH": 64822, "BSTAR": 0.00030254521, "MEAN_MOTION_DOT": 8.82e-06, "MEAN_MOTION_DDOT": 0, "GROUP": "cosmos-2251-debris"}, "tle": {"line1": "1 35885U 93036ATY 25333.26566258  .00000882  00000+0  30255-3 0  9991", "line2": "2 35885  74.0276 319.6040 0022657  43.8514 316.4433 14.37477646648222"}}, "geometry": {"type": "Point", "coordinates": [98.8918092623182, 64.65992150356406]}}, {"type": "Feature", "properties": {"norad_id": 35888, "name": "COSMOS 2251 DEB", "group": "cosmos-2251-debris", "lat": -71.80102103627273, "lon": -41.849780094435424, "alt_km": 725.3296368847323, "timestamp": "2025-12-01T03:58:49.148160+00:00", "meta": {"OBJECT_NAME": "COSMOS 2251 DEB", "OBJECT_ID": "1993-036AUB", "EPOCH": "2025-11-30T10:14:37.774176", "MEAN_MOTION": 14.58248564, "ECCENTRICITY": 0.00488853, "INCLINATION": 74.0347, "RA_OF_ASC_NODE": 20.1048, "ARG_OF_PERICENTER": 155.7908, "MEAN_ANOMALY": 204.557, "EPHEMERIS_TYPE": 0, "CLASSIFICATION_TYPE": "U", "NORAD_CAT_ID": 35888, "ELEMENT_SET_NO": 999, "REV_AT_EPOCH": 86094, "BSTAR": 0.00040252889, "MEAN_MOTION_DOT": 1.86e-05, "MEAN_MOTION_DDOT": 0, "GROUP": "cosmos-2251-debris"}, "tle": {"line1": "1 35888U 93036AUB 25334.42682609  .00001860  00000+0  40253-3 0  9998", "line2": "2 35888  74.0347  20.1048 0048885 155.7908 204.5570 14.58248564860949"}}, "geometry": {"type": "Point", "coordinates": [-41.849780094435424, -71.80102103627273]}}, {"type": "Feature", "properties": {"norad_id": 35890, "name": "COSMOS 2251 DEB", "group": "cosmos-2251-debris", "lat": 0.18965941976006476, "lon": -95.11566606137758, "alt_km": 672.673419956619, "timestamp": "2025-12-01T03:58:49.148170+00:00", "meta": {"OBJECT_NAME": "COSMOS 2251 DEB", "OBJECT_ID": "1993-036AUD", "EPOCH": "2025-11-26T13:34:44.411520", "MEAN_MOTION": 14.57052696, "ECCENTRICITY": 0.00530638, "INCLINATION": 73.9365, "RA_OF_ASC_NODE": 273.6166, "ARG_OF_PERICENTER": 40.9206, "MEAN_ANOMALY": 319.5921, "EPHEMERIS_TYPE": 0, "CLASSIFICATION_TYPE": "U", "NORAD_CAT_ID": 35890, "ELEMENT_SET_NO": 999, "REV_AT_EPOCH": 64915, "BSTAR": 0.0024341632, "MEAN_MOTION_DOT": 0.00011157, "MEAN_MOTION_DDOT": 0, "GROUP": "cosmos-2251-debris"}, "tle": {"line1": "1 35890U 93036AUD 25330.56579180  .00011157  00000+0  24342-2 0  9991", "line2": "2 35890  73.9365 273.6166 0053063  40.9206 319.5921 14.57052696649159"}}, "geometry": {"type": "Point", "coordinates": [-95.11566606137758, 0.18965941976006476]}}, {"type": "Feature", "properties": {"norad_id": 35891, "name": "COSMOS 2251 DEB", "group": "cosmos-2251-debris", "lat": 4.596792372484454, "lon": 120.00328958334104, "alt_km": 486.33369734978714, "timestamp": "2025-12-01T03:58:49.148180+00:00", "meta": {"OBJECT_NAME": "COSMOS 2251 DEB", "OBJECT_ID": "1993-036AUE", "EPOCH": "2025-11-28T16:23:30.685920", "MEAN_MOTION": 15.31601125, "ECCENTRICITY": 0.00469718, "INCLINATION": 73.9883, "RA_OF_ASC_NODE": 123.9917, "ARG_OF_PERICENTER": 255.1212, "MEAN_ANOMALY": 104.4787, "EPHEMERIS_TYPE": 0, "CLASSIFICATION_TYPE": "U", "NORAD_CAT_ID": 35891, "ELEMENT_SET_NO": 999, "REV_AT_EPOCH": 67005, "BSTAR": 0.0013260761, "MEAN_MOTION_DOT": 0.00042078, "MEAN_MOTION_DDOT": 0, "GROUP": "cosmos-2251-debris"}, "tle": {"line1": "1 35891U 93036AUE 25332.68299405  .00042078  00000+0  13261-2 0  9990", "line2": "2 35891  73.9883 123.9917 0046971 255.1212 104.4787 15.31601125670057"}}, "geometry": {"type": "Point", "coordinates": [120.00328958334104, 4.596792372484454]}}, {"type": "Feature", "properties": {"norad_id": 35895, "name": "COSMOS 2251 DEB", "group": "cosmos-2251-debris", "lat": 14.373156806014853, "lon": 11.94029036300549, "alt_km": 896.6644211620114, "timestamp": "2025-12-01T03:58:49.148194+00:00", "meta": {"OBJECT_NAME": "COSMOS 2251 DEB", "OBJECT_ID": "1993-036AUJ", "EPOCH": "2025-11-28T10:48:22.739616", "MEAN_MOTION": 14.01419981, "ECCENTRICITY": 0.01996382, "INCLINATION": 74.0486, "RA_OF_ASC_NODE": 12.4453, "ARG_OF_PERICENTER": 114.4344, "MEAN_ANOMALY": 247.7763, "EPHEMERIS_TYPE": 0, "CLASSIFICATION_TYPE": "U", "NORAD_CAT_ID": 35895, "ELEMENT_SET_NO": 999, "REV_AT_EPOCH": 58812, "BSTAR": 0.0013219318, "MEAN_MOTION_DOT": 2.352e-05, "MEAN_MOTION_DDOT": 0, "GROUP": "cosmos-2251-debris"}, "tle": {"line1": "1 35895U 93036AUJ 25332.45026319  .00002352  00000+0  13219-2 0  9995", "line2": "2 35895  74.0486  12.4453 0199638 114.4344 247.7763 14.01419981588125"}}, "geometry": {"type": "Point", "coordinates": [11.94029036300549, 14.373156806014853]}}, {"type": "Feature", "properties": {"norad_id": 35898, "name": "COSMOS 2251 DEB", "group": "cosmos-2251-debris", "lat": -31.712634050880627, "lon": -49.367236502481546, "alt_km": 632.4990498255675, "timestamp": "2025-12-01T03:58:49.148207+00:00", "meta": {"OBJECT_NAME": "COSMOS 2251 DEB", "OBJECT_ID": "1993-036AUM", "EPOCH": "2025-11-26T10:43:10.830432", "MEAN_MOTION": 14.94349482, "ECCENTRICITY": 0.00793661, "INCLINATION": 73.992, "RA_OF_ASC_NODE": 330.381, "ARG_OF_PERICENTER": 118.4454, "MEAN_ANOMALY": 31.5293, "EPHEMERIS_TYPE": 0, "CLASSIFICATION_TYPE": "U", "NORAD_CAT_ID": 35898, "ELEMENT_SET_NO": 999, "REV_AT_EPOCH": 66566, "BSTAR": 0.00069428885, "MEAN_MOTION_DOT": 7.918e-05, "MEAN_MOTION_DDOT": 0, "GROUP": "cosmos-2251-debris"}, "tle": {"line1": "1 35898U 93036AUM 25330.44665313  .00007918  00000+0  69429-3 0  9996", "line2": "2 35898  73.9920 330.3810 0079366 118.4454  31.5293 14.94349482665661"}}, "geometry": {"type": "Point", "coordinates": [-49.367236502481546, -31.712634050880627]}}, {"type": "Feature", "properties": {"norad_id": 35901, "name": "COSMOS 2251 DEB", "group": "cosmos-2251-debris", "lat": -25.795307419473374, "lon": -125.3717592399627, "alt_km": 558.2813857882838, "timestamp": "2025-12-01T03:58:49.148218+00:00", "meta": {"OBJECT_NAME": "COSMOS 2251 DEB", "OBJECT_ID": "1993-036AUQ", "EPOCH": "2025-11-21T23:25:48.076896", "MEAN_MOTION": 15.04424666, "ECCENTRICITY": 0.00037792, "INCLINATION": 74.0124, "RA_OF_ASC_NODE": 65.5008, "ARG_OF_PERICENTER": 42.8917, "MEAN_ANOMALY": 78.8485, "EPHEMERIS_TYPE": 0, "CLASSIFICATION_TYPE": "U", "NORAD_CAT_ID": 35901, "ELEMENT_SET_NO": 999, "REV_AT_EPOCH": 85814, "BSTAR": 0.0037592562, "MEAN_MOTION_DOT": 0.00052914, "MEAN_MOTION_DDOT": 0, "GROUP": "cosmos-2251-debris"}, "tle": {"line1": "1 35901U 93036AUQ 25325.97625089  .00052914  00000+0  37593-2 0  9991", "line2": "2 35901  74.0124  65.5008 0003779  42.8917  78.8485 15.04424666858143"}}, "geometry": {"type": "Point", "coordinates": [-125.3717592399627, -25.795307419473374]}}, {"type": "Feature", "properties": {"norad_id": 35902, "name": "COSMOS 2251 DEB", "group": "cosmos-2251-debris", "lat": -15.23146900743104, "lon": 80.07479122197284, "alt_km": 879.5468935341905, "timestamp": "2025-12-01T03:58:49.148228+00:00", "meta": {"OBJECT_NAME": "COSMOS 2251 DEB", "OBJECT_ID": "1993-036AUR", "EPOCH": "2025-11-28T04:23:26.255328", "MEAN_MOTION": 14.26769543, "ECCENTRICITY": 0.01014475, "INCLINATION": 73.9835, "RA_OF_ASC_NODE": 260.9996, "ARG_OF_PERICENTER": 18.5802, "MEAN_ANOMALY": 341.9005, "EPHEMERIS_TYPE": 0, "CLASSIFICATION_TYPE": "U", "NORAD_CAT_ID": 35902, "ELEMENT_SET_NO": 999, "REV_AT_EPOCH": 60922, "BSTAR": 0.001504712, "MEAN_MOTION_DOT": 3.825e-05, "MEAN_MOTION_DDOT": 0, "GROUP": "cosmos-2251-debris"}, "tle": {"line1": "1 35902U 93036AUR 25332.18294277  .00003825  00000+0  15047-2 0  9991", "line2": "2 35902  73.9835 260.9996 0101447  18.5802 341.9005 14.26769543609226"}}, "geometry": {"type": "Point", "coordinates": [80.07479122197284, -15.23146900743104]}}, {"type": "Feature", "properties": {"norad_id": 35905, "name": "COSMOS 2251 DEB", "group": "cosmos-2251-debris", "lat": 29.489186858815973, "lon": -116.37595411593882, "alt_km": 550.8925837366487, "timestamp": "2025-12-01T03:58:49.148238+00:00", "meta": {"OBJECT_NAME": "COSMOS 2251 DEB", "OBJECT_ID": "1993-036AUU", "EPOCH": "2025-11-28T10:09:40.351680", "MEAN_MOTION": 14.98696461, "ECCENTRICITY": 0.00911356, "INCLINATION": 74.032, "RA_OF_ASC_NODE": 239.8674, "ARG_OF_PERICENTER": 323.3096, "MEAN_ANOMALY": 36.187, "EPHEMERIS_TYPE": 0, "CLASSIFICATION_TYPE": "U", "NORAD_CAT_ID": 35905, "ELEMENT_SET_NO": 999, "REV_AT_EPOCH": 88368, "BSTAR": 0.00075319414, "MEAN_MOTION_DOT": 9.844e-05, "MEAN_MOTION_DDOT": 0, "GROUP": "cosmos-2251-debris"}, "tle": {"line1": "1 35905U 93036AUU 25332.42338370  .00009844  00000+0  75319-3 0  9990", "line2": "2 35905  74.0320 239.8674 0091135 323.3096  36.1870 14.98696461883686"}}, "geometry": {"type": "Point", "coordinates": [-116.37595411593882, 29.489186858815973]}}]}